[
    {
        "Altitude(m)": 567767.536810192,
        "Argument of Periapsis(deg)": -0.03013754771062987,
        "Eccentricity": 0.0,
        "Inclination(deg)": 97.0,
        "Latitude(deg)": 32.969689236214265,
        "Longitude(deg)": -158.5934810853083,
        "Mean Anomaly(deg)": 146.84649102558325,
        "RAAN(deg)": 120.00792940482468,
        "Satellite Name": "Starlink Shell 3 1832",
        "Satellite Number": 1832,
        "Semi-Major Axis(m)": 6938478.169268562,
        "Time(s)": 760
    },
    {
        "Altitude(m)": 567656.9311983057,
        "Argument of Periapsis(deg)": -0.030534094391032898,
        "Eccentricity": 0.0,
        "Inclination(deg)": 97.0,
        "Latitude(deg)": 32.34880045351514,
        "Longitude(deg)": -158.7424609050596,
        "Mean Anomaly(deg)": 147.47196722328837,
        "RAAN(deg)": 120.00803373909866,
        "Satellite Name": "Starlink Shell 3 1832",
        "Satellite Number": 1832,
        "Semi-Major Axis(m)": 6938478.169268562,
        "Time(s)": 770
    },
    {
        "Altitude(m)": 567548.6026477262,
        "Argument of Periapsis(deg)": -0.030930641071435925,
        "Eccentricity": 0.0,
        "Inclination(deg)": 97.0,
        "Latitude(deg)": 31.727756608135245,
        "Longitude(deg)": -158.88998887677872,
        "Mean Anomaly(deg)": 148.09744342099344,
        "RAAN(deg)": 120.00813807337268,
        "Satellite Name": "Starlink Shell 3 1832",
        "Satellite Number": 1832,
        "Semi-Major Axis(m)": 6938478.169268562,
        "Time(s)": 780
    },
    {
        "Altitude(m)": 567442.6279472158,
        "Argument of Periapsis(deg)": -0.031327187751838945,
        "Eccentricity": 0.0,
        "Inclination(deg)": 97.0,
        "Latitude(deg)": 31.106561864561687,
        "Longitude(deg)": -159.03611796903886,
        "Mean Anomaly(deg)": 148.72291961869843,
        "RAAN(deg)": 120.0082424076467,
        "Satellite Name": "Starlink Shell 3 1832",
        "Satellite Number": 1832,
        "Semi-Major Axis(m)": 6938478.169268562,
        "Time(s)": 790
    },
    {
        "Altitude(m)": 567339.0829414116,
        "Argument of Periapsis(deg)": -0.031723734432241975,
        "Eccentricity": 0.0,
        "Inclination(deg)": 97.0,
        "Latitude(deg)": 30.48522029851097,
        "Longitude(deg)": -159.18089963313614,
        "Mean Anomaly(deg)": 149.34839581640347,
        "RAAN(deg)": 120.0083467419207,
        "Satellite Name": "Starlink Shell 3 1832",
        "Satellite Number": 1832,
        "Semi-Major Axis(m)": 6938478.169268562,
        "Time(s)": 800
    },
    {
        "Altitude(m)": 567238.0424905022,
        "Argument of Periapsis(deg)": -0.032120281112645,
        "Eccentricity": 0.0,
        "Inclination(deg)": 97.0,
        "Latitude(deg)": 29.863735903175044,
        "Longitude(deg)": -159.32438340535484,
        "Mean Anomaly(deg)": 149.9738720141085,
        "RAAN(deg)": 120.00845107619472,
        "Satellite Name": "Starlink Shell 3 1832",
        "Satellite Number": 1832,
        "Semi-Major Axis(m)": 6938478.169268562,
        "Time(s)": 810
    },
    {
        "Altitude(m)": 567139.5804303337,
        "Argument of Periapsis(deg)": -0.03251682779304802,
        "Eccentricity": 0.0,
        "Inclination(deg)": 97.0,
        "Latitude(deg)": 29.242112595055623,
        "Longitude(deg)": -159.46661650297662,
        "Mean Anomaly(deg)": 150.5993482118136,
        "RAAN(deg)": 120.00855541046872,
        "Satellite Name": "Starlink Shell 3 1832",
        "Satellite Number": 1832,
        "Semi-Major Axis(m)": 6938478.169268562,
        "Time(s)": 820
    },
    {
        "Altitude(m)": 567043.7695329563,
        "Argument of Periapsis(deg)": -0.032913374473451044,
        "Eccentricity": 0.0,
        "Inclination(deg)": 97.0,
        "Latitude(deg)": 28.620354219415397,
        "Longitude(deg)": -159.6076449273404,
        "Mean Anomaly(deg)": 151.22482440951867,
        "RAAN(deg)": 120.00865974474274,
        "Satellite Name": "Starlink Shell 3 1832",
        "Satellite Number": 1832,
        "Semi-Major Axis(m)": 6938478.169268562,
        "Time(s)": 830
    },
    {
        "Altitude(m)": 566950.6814676299,
        "Argument of Periapsis(deg)": -0.03330992115385407,
        "Eccentricity": 0.0,
        "Inclination(deg)": 97.0,
        "Latitude(deg)": 27.998464555367836,
        "Longitude(deg)": -159.74751304861,
        "Mean Anomaly(deg)": 151.85030060722366,
        "RAAN(deg)": 120.00876407901674,
        "Satellite Name": "Starlink Shell 3 1832",
        "Satellite Number": 1832,
        "Semi-Major Axis(m)": 6938478.169268562,
        "Time(s)": 840
    },
    {
        "Altitude(m)": 566860.386762338,
        "Argument of Periapsis(deg)": -0.0337064678342571,
        "Eccentricity": 0.0,
        "Inclination(deg)": 97.0,
        "Latitude(deg)": 27.376447320631133,
        "Longitude(deg)": -159.8862631854938,
        "Mean Anomaly(deg)": 152.4757768049287,
        "RAAN(deg)": 120.00886841329077,
        "Satellite Name": "Starlink Shell 3 1832",
        "Satellite Number": 1832,
        "Semi-Major Axis(m)": 6938478.169268562,
        "Time(s)": 850
    },
    {
        "Altitude(m)": 566772.9547657856,
        "Argument of Periapsis(deg)": -0.03410301451466012,
        "Eccentricity": 0.0,
        "Inclination(deg)": 97.0,
        "Latitude(deg)": 26.75430617597201,
        "Longitude(deg)": -160.02393686122937,
        "Mean Anomaly(deg)": 153.10125300263374,
        "RAAN(deg)": 120.00897274756477,
        "Satellite Name": "Starlink Shell 3 1832",
        "Satellite Number": 1832,
        "Semi-Major Axis(m)": 6938478.169268562,
        "Time(s)": 860
    },
    {
        "Altitude(m)": 566688.4536099387,
        "Argument of Periapsis(deg)": -0.034499561195063144,
        "Eccentricity": 0.0,
        "Inclination(deg)": 97.0,
        "Latitude(deg)": 26.13204472935114,
        "Longitude(deg)": -160.1605735337254,
        "Mean Anomaly(deg)": 153.72672920033878,
        "RAAN(deg)": 120.00907708183878,
        "Satellite Name": "Starlink Shell 3 1832",
        "Satellite Number": 1832,
        "Semi-Major Axis(m)": 6938478.169268562,
        "Time(s)": 870
    },
    {
        "Altitude(m)": 566606.9501731306,
        "Argument of Periapsis(deg)": -0.03489610787546617,
        "Eccentricity": 0.0,
        "Inclination(deg)": 97.0,
        "Latitude(deg)": 25.50966653979841,
        "Longitude(deg)": -160.29621184306583,
        "Mean Anomaly(deg)": 154.35220539804382,
        "RAAN(deg)": 120.00918141611278,
        "Satellite Name": "Starlink Shell 3 1832",
        "Satellite Number": 1832,
        "Semi-Major Axis(m)": 6938478.169268562,
        "Time(s)": 880
    },
    {
        "Altitude(m)": 566528.5100437134,
        "Argument of Periapsis(deg)": -0.0352926545558692,
        "Eccentricity": 0.0,
        "Inclination(deg)": 97.0,
        "Latitude(deg)": 24.887175121028736,
        "Longitude(deg)": -160.4308891742223,
        "Mean Anomaly(deg)": 154.9776815957489,
        "RAAN(deg)": 120.00928575038678,
        "Satellite Name": "Starlink Shell 3 1832",
        "Satellite Number": 1832,
        "Semi-Major Axis(m)": 6938478.169268562,
        "Time(s)": 890
    },
    {
        "Altitude(m)": 566453.1974843115,
        "Argument of Periapsis(deg)": -0.035689201236272214,
        "Eccentricity": 0.0,
        "Inclination(deg)": 97.0,
        "Latitude(deg)": 24.26457394481629,
        "Longitude(deg)": -160.56464121619857,
        "Mean Anomaly(deg)": 155.6031577934539,
        "RAAN(deg)": 120.00939008466078,
        "Satellite Name": "Starlink Shell 3 1832",
        "Satellite Number": 1832,
        "Semi-Major Axis(m)": 6938478.169268562,
        "Time(s)": 900
    },
    {
        "Altitude(m)": 566381.075396691,
        "Argument of Periapsis(deg)": -0.036085747916675244,
        "Eccentricity": 0.0,
        "Inclination(deg)": 97.0,
        "Latitude(deg)": 23.641866444145478,
        "Longitude(deg)": -160.69750303071444,
        "Mean Anomaly(deg)": 156.22863399115894,
        "RAAN(deg)": 120.0094944189348,
        "Satellite Name": "Starlink Shell 3 1832",
        "Satellite Number": 1832,
        "Semi-Major Axis(m)": 6938478.169268562,
        "Time(s)": 910
    },
    {
        "Altitude(m)": 566312.205287267,
        "Argument of Periapsis(deg)": -0.03648229459707827,
        "Eccentricity": 0.0,
        "Inclination(deg)": 97.0,
        "Latitude(deg)": 23.019056016147328,
        "Longitude(deg)": -160.8295086048997,
        "Mean Anomaly(deg)": 156.85411018886404,
        "RAAN(deg)": 120.0095987532088,
        "Satellite Name": "Starlink Shell 3 1832",
        "Satellite Number": 1832,
        "Semi-Major Axis(m)": 6938478.169268562,
        "Time(s)": 920
    },
    {
        "Altitude(m)": 566246.6472332504,
        "Argument of Periapsis(deg)": -0.0368788412774813,
        "Eccentricity": 0.0,
        "Inclination(deg)": 97.0,
        "Latitude(deg)": 22.396146024837755,
        "Longitude(deg)": -160.96069040107517,
        "Mean Anomaly(deg)": 157.47958638656908,
        "RAAN(deg)": 120.00970308748282,
        "Satellite Name": "Starlink Shell 3 1832",
        "Satellite Number": 1832,
        "Semi-Major Axis(m)": 6938478.169268562,
        "Time(s)": 930
    },
    {
        "Altitude(m)": 566184.4598494634,
        "Argument of Periapsis(deg)": -0.037275387957884314,
        "Eccentricity": 0.0,
        "Inclination(deg)": 97.0,
        "Latitude(deg)": 21.773139803670123,
        "Longitude(deg)": -161.09108041668125,
        "Mean Anomaly(deg)": 158.10506258427412,
        "RAAN(deg)": 120.00980742175683,
        "Satellite Name": "Starlink Shell 3 1832",
        "Satellite Number": 1832,
        "Semi-Major Axis(m)": 6938478.169268562,
        "Time(s)": 940
    }
]